OBJECT_NAME,OBJECT_ID,EPOCH,MEAN_MOTION,ECCENTRICITY,INCLINATION,RA_OF_ASC_NODE,ARG_OF_PERICENTER,MEAN_ANOMALY,EPHEMERIS_TYPE,CLASSIFICATION_TYPE,NORAD_CAT_ID,ELEMENT_SET_NO,REV_AT_EPOCH,BSTAR,MEAN_MOTION_DOT,MEAN_MOTION_DDOT
TIANZHOU-10,2026-102A,2026-06-08T12:43:02.663616,15.60445632,.00085483,41.4696,14.6734,8.8388,351.2600,0,U,69049,999,449,.29104009E-3,.24398E-3,0
QIANFAN-127,2026-104A,2026-06-08T18:05:24.781920,14.14186539,.0005647,88.9855,342.5645,157.9767,202.1664,0,U,69073,999,389,-.11597E+1,-.2044982E-1,0
QIANFAN-128,2026-104B,2026-06-08T17:54:13.580928,14.11084798,.0004621,88.9847,342.5828,83.9857,276.1855,0,U,69074,999,388,-.11768E+1,-.196608E-1,0
QIANFAN-129,2026-104C,2026-06-08T16:55:08.715936,14.17758563,.0005025,88.9858,342.5570,188.9701,171.1398,0,U,69075,999,389,-.10751E+1,-.2026816E-1,0
QIANFAN-130,2026-104D,2026-06-08T19:16:32.249856,14.15164332,.0004899,88.9864,342.5719,111.4282,248.7428,0,U,69076,999,389,.44187E-4,.1E-5,0
QIANFAN-131,2026-104E,2026-06-08T20:13:28.174944,14.17061532,.000404,88.9862,342.5589,125.6922,234.4643,0,U,69077,999,390,.37684E-4,.9E-6,0
QIANFAN-132,2026-104F,2026-06-08T14:27:17.239968,14.11153771,.0008748,88.9853,342.5986,86.2509,273.9677,0,U,69078,999,386,-.12433E+1,-.2072151E-1,0
QIANFAN-133,2026-104G,2026-06-08T17:26:33.208800,14.12626413,.0005008,88.9854,342.5783,91.2340,268.9420,0,U,69079,999,388,-.12334E+1,-.210836E-1,0
QIANFAN-134,2026-104H,2026-06-08T17:16:54.220800,14.11522460,.0008711,88.9859,342.5785,88.2494,271.9689,0,U,69080,999,388,-.11553E+1,-.194747E-1,0
QIANFAN-135,2026-104J,2026-06-08T12:03:49.903488,14.12808391,.00048828,88.9857,342.6020,127.5038,232.6593,0,U,69081,999,385,-.1184022E+1,-.2036209E-1,0
QIANFAN-136,2026-104K,2026-06-08T11:56:48.856416,14.12832297,.00052568,88.9855,342.6010,126.7279,233.4390,0,U,69082,999,385,-.11391117E+1,-.1965114E-1,0
QIANFAN-137,2026-104L,2026-06-08T20:24:12.000960,14.24907995,.0005635,88.9862,342.5412,129.1407,231.0287,0,U,69083,999,391,.40852E-4,.11E-5,0
QIANFAN-138,2026-104M,2026-06-08T18:24:13.609152,14.13817392,.0004738,88.9857,342.5666,149.1538,210.9928,0,U,69084,999,389,-.11372E+1,-.1995333E-1,0
QIANFAN-139,2026-104N,2026-06-08T14:53:35.832768,14.14031609,.0005746,88.9852,342.5819,164.4503,195.6861,0,U,69085,999,387,-.11447E+1,-.2015082E-1,0
QIANFAN-140,2026-104P,2026-06-08T16:26:56.300640,14.14034696,.0004641,88.9856,342.5733,146.8003,213.3475,0,U,69086,999,388,-.10626E+1,-.1879998E-1,0
QIANFAN-141,2026-104Q,2026-06-08T18:02:28.099968,14.14544033,.0006084,88.9858,342.5645,138.6349,221.5299,0,U,69087,999,389,-.11227E+1,-.1996501E-1,0
QIANFAN-142,2026-104R,2026-06-08T17:54:17.761824,14.14698460,.00059,88.9852,342.5637,161.5075,198.6327,0,U,69088,999,389,-.11327E+1,-.201829E-1,0
QIANFAN-143,2026-104S,2026-06-08T14:09:38.922048,14.15765989,.0004881,88.9850,342.5768,181.4208,178.6967,0,U,69089,999,387,-.10693E+1,-.1948425E-1,0
QIANFAN-144,2026-104T,2026-06-08T16:00:36.525888,14.14579296,.0005087,88.9855,342.5709,177.2490,182.8726,0,U,69090,999,388,-.10069E+1,-.1784609E-1,0
ZHUQUE-2E R/B,2026-105A,2026-06-08T11:42:36.406368,15.14953575,.04570661,88.9716,195.4534,331.6899,26.0164,0,U,69095,999,383,.37616139E-3,.153293E-2,-.700057E-6
2026-106A,2026-106A,2026-06-04T15:09:10.862208,15.11037132,.0013466,97.5095,237.9435,203.5034,156.5582,0,U,69097,999,308,.543886E-3,.9052E-4,0
2026-106B,2026-106B,2026-06-04T15:16:55.543008,15.09575067,.00142668,97.5082,237.9319,199.5733,160.4950,0,U,69098,999,308,.42602016E-3,.6796E-4,0
2026-106C,2026-106C,2026-06-04T15:08:24.576864,15.11076088,.00135546,97.5097,237.9445,204.3760,155.6830,0,U,69099,999,308,.53277866E-3,.8876E-4,0
2026-106D,2026-106D,2026-06-04T15:05:56.171040,15.11202473,.00131226,97.5062,237.9411,207.0214,153.0334,0,U,69100,999,308,.49447297E-3,.826E-4,0
2026-106E,2026-106E,2026-06-04T15:00:25.283232,15.11460406,.0015124,97.5073,237.9468,208.9127,151.1267,0,U,69101,999,308,.54174936E-3,.9128E-4,0
DRAGON CRS-34,2026-107A,2026-06-08T19:17:55.071168,15.49672912,.0006923,51.6336,341.5878,148.5365,211.6039,0,U,69103,999,57049,.13425E-3,.7129E-4,0
QIANFAN-145,2026-108A,2026-06-08T17:17:58.155072,14.16077277,.0015833,89.0118,23.1632,140.8807,219.3529,0,U,69104,999,314,.26868E-4,.67E-6,0
QIANFAN-146,2026-108B,2026-06-08T12:05:41.907264,14.16802643,.00138998,89.0115,23.1686,156.2007,203.9827,0,U,69105,999,312,-.93766639E+0,-.1736877E-1,0
