TIANZHOU-10             
1 69049U 26102A   26159.52989194  .00024398  00000+0  29104-3 0  9993
2 69049  41.4696  14.6734 0008548   8.8388 351.2600 15.60445632  4495
QIANFAN-127             
1 69073U 26104A   26159.75375905 -.02044982  00000+0 -11597+1 0  9995
2 69073  88.9855 342.5645 0005647 157.9767 202.1664 14.14186539  3896
QIANFAN-128             
1 69074U 26104B   26159.74599052 -.01966080  00000+0 -11768+1 0  9997
2 69074  88.9847 342.5828 0004621  83.9857 276.1855 14.11084798  3883
QIANFAN-129             
1 69075U 26104C   26159.70496199 -.02026816  00000+0 -10751+1 0  9998
2 69075  88.9858 342.5570 0005025 188.9701 171.1398 14.17758563  3894
QIANFAN-130             
1 69076U 26104D   26159.80315104  .00000100  00000+0  44187-4 0  9994
2 69076  88.9864 342.5719 0004899 111.4282 248.7428 14.15164332  3898
QIANFAN-131             
1 69077U 26104E   26159.84268721  .00000090  00000+0  37684-4 0  9993
2 69077  88.9862 342.5589 0004040 125.6922 234.4643 14.17061532  3901
QIANFAN-132             
1 69078U 26104F   26159.60228287 -.02072151  00000+0 -12433+1 0  9993
2 69078  88.9853 342.5986 0008748  86.2509 273.9677 14.11153771  3866
QIANFAN-133             
1 69079U 26104G   26159.72677325 -.02108360  00000+0 -12334+1 0  9990
2 69079  88.9854 342.5783 0005008  91.2340 268.9420 14.12626413  3889
QIANFAN-134             
1 69080U 26104H   26159.72007200 -.01947470  00000+0 -11553+1 0  9995
2 69080  88.9859 342.5785 0008711  88.2494 271.9689 14.11522460  3885
QIANFAN-135             
1 69081U 26104J   26159.50266092 -.02036209  00000+0 -11840+1 0  9997
2 69081  88.9857 342.6020 0004882 127.5038 232.6593 14.12808391  3859
QIANFAN-136             
1 69082U 26104K   26159.49778769 -.01965114  00000+0 -11391+1 0  9991
2 69082  88.9855 342.6010 0005256 126.7279 233.4390 14.12832297  3857
QIANFAN-137             
1 69083U 26104L   26159.85013890  .00000110  00000+0  40852-4 0  9990
2 69083  88.9862 342.5412 0005635 129.1407 231.0287 14.24907995  3919
QIANFAN-138             
1 69084U 26104M   26159.76682418 -.01995333  00000+0 -11372+1 0  9993
2 69084  88.9857 342.5666 0004738 149.1538 210.9928 14.13817392  3899
QIANFAN-139             
1 69085U 26104N   26159.62055362 -.02015082  00000+0 -11447+1 0  9999
2 69085  88.9852 342.5819 0005746 164.4503 195.6861 14.14031609  3870
QIANFAN-140             
1 69086U 26104P   26159.68537385 -.01879998  00000+0 -10626+1 0  9997
2 69086  88.9856 342.5733 0004641 146.8003 213.3475 14.14034696  3881
QIANFAN-141             
1 69087U 26104Q   26159.75171412 -.01996501  00000+0 -11227+1 0  9999
2 69087  88.9858 342.5645 0006084 138.6349 221.5299 14.14544033  3898
QIANFAN-142             
1 69088U 26104R   26159.74603891 -.02018290  00000+0 -11327+1 0  9992
2 69088  88.9852 342.5637 0005900 161.5075 198.6327 14.14698460  3891
QIANFAN-143             
1 69089U 26104S   26159.59003382 -.01948425  00000+0 -10693+1 0  9991
2 69089  88.9850 342.5768 0004881 181.4208 178.6967 14.15765989  3879
QIANFAN-144             
1 69090U 26104T   26159.66708942 -.01784609  00000+0 -10069+1 0  9994
2 69090  88.9855 342.5709 0005087 177.2490 182.8726 14.14579296  3880
ZHUQUE-2E R/B           
1 69095U 26105A   26159.48792137  .00153293 -70006-6  37616-3 0  9996
2 69095  88.9716 195.4534 0457066 331.6899  26.0164 15.14953575  3836
2026-106A               
1 69097U 26106A   26155.63137572  .00009052  00000+0  54389-3 0  9996
2 69097  97.5095 237.9435 0013466 203.5034 156.5582 15.11037132  3085
2026-106B               
1 69098U 26106B   26155.63675397  .00006796  00000+0  42602-3 0  9996
2 69098  97.5082 237.9319 0014266 199.5733 160.4950 15.09575067  3086
2026-106C               
1 69099U 26106C   26155.63084001  .00008876  00000+0  53278-3 0  9995
2 69099  97.5097 237.9445 0013554 204.3760 155.6830 15.11076088  3082
2026-106D               
1 69100U 26106D   26155.62912235  .00008260  00000+0  49447-3 0  9996
2 69100  97.5062 237.9411 0013122 207.0214 153.0334 15.11202473  3085
2026-106E               
1 69101U 26106E   26155.62529263  .00009128  00000+0  54175-3 0  9990
2 69101  97.5073 237.9468 0015124 208.9127 151.1267 15.11460406  3083
DRAGON CRS-34           
1 69103U 26107A   26159.80410962  .00007129  00000+0  13425-3 0  9994
2 69103  51.6336 341.5878 0006923 148.5365 211.6039 15.49672912570496
QIANFAN-145             
1 69104U 26108A   26159.72081198  .00000067  00000+0  26868-4 0  9992
2 69104  89.0118  23.1632 0015833 140.8807 219.3529 14.16077277  3145
QIANFAN-146             
1 69105U 26108B   26159.50395726 -.01736877  00000+0 -93767+0 0  9999
2 69105  89.0115  23.1686 0013899 156.2007 203.9827 14.16802643  3126
